{
    "links": {
        "self": "http://www.neowsapp.com/rest/v1/neo/3718780?api_key=iIulBulltgU6a56xZRHN4H3l9WmuAYTsLGpBGhQ2"
    },
    "id": "3718780",
    "neo_reference_id": "3718780",
    "name": "(2015 HU171)",
    "designation": "2015 HU171",
    "nasa_jpl_url": "http://ssd.jpl.nasa.gov/sbdb.cgi?sstr=3718780",
    "absolute_magnitude_h": 23.7,
    "estimated_diameter": {
        "kilometers": {
            "estimated_diameter_min": 0.0483676488,
            "estimated_diameter_max": 0.1081533507
        },
        "meters": {
            "estimated_diameter_min": 48.3676488219,
            "estimated_diameter_max": 108.1533506775
        },
        "miles": {
            "estimated_diameter_min": 0.0300542543,
            "estimated_diameter_max": 0.0672033557
        },
        "feet": {
            "estimated_diameter_min": 158.6865169607,
            "estimated_diameter_max": 354.8338390368
        }
    },
    "is_potentially_hazardous_asteroid": false,
    "close_approach_data": [
        {
            "close_approach_date": "2015-05-05",
            "close_approach_date_full": "2015-May-05 12:49",
            "epoch_date_close_approach": 1430830140000,
            "relative_velocity": {
                "kilometers_per_second": "11.0716339134",
                "kilometers_per_hour": "39857.8820881576",
                "miles_per_hour": "24766.1379008332"
            },
            "miss_distance": {
                "astronomical": "0.0702091559",
                "lunar": "27.3113616451",
                "kilometers": "10503140.177137933",
                "miles": "6526348.6752641554"
            },
            "orbiting_body": "Earth"
        }
    ],
    "orbital_data": {
        "orbit_id": "11",
        "orbit_determination_date": "2017-08-10 06:19:11",
        "first_observation_date": "2015-04-29",
        "last_observation_date": "2015-05-09",
        "data_arc_in_days": 10,
        "observations_used": 61,
        "orbit_uncertainty": "8",
        "minimum_orbit_intersection": ".0345705",
        "jupiter_tisserand_invariant": "3.351",
        "epoch_osculation": "2457144.5",
        "eccentricity": ".5737000036197091",
        "semi_major_axis": "2.293442262067842",
        "inclination": "5.583405414073722",
        "ascending_node_longitude": "76.96727417463418",
        "orbital_period": "1268.615880506",
        "perihelion_distance": ".9776944280179272",
        "perihelion_argument": "179.1743993490597",
        "aphelion_distance": "3.609190096117756",
        "perihelion_time": "2457171.513325163546",
        "mean_anomaly": "352.334324984961",
        "mean_motion": ".2837738400818461",
        "equinox": "J2000",
        "orbit_class": {
            "orbit_class_type": "APO",
            "orbit_class_description": "Near-Earth asteroid orbits which cross the Earth’s orbit similar to that of 1862 Apollo",
            "orbit_class_range": "a (semi-major axis) > 1.0 AU; q (perihelion) < 1.017 AU"
        }
    },
    "is_sentry_object": false
}